NORAD_CAT_ID,OBJECT_NAME,OBJECT_TYPE,EPOCH,MEAN_MOTION,ECCENTRICITY,INCLINATION,RA_OF_ASC_NODE,ARG_OF_PERICENTER,MEAN_ANOMALY,BSTAR,MEAN_MOTION_DOT,MEAN_MOTION_DDOT,TLE_LINE0,TLE_LINE1,TLE_LINE2,SEMIMAJOR_AXIS,PERIOD,APOGEE,PERIGEE,DECAYED
53973.0,STARLINK-5156,PAYLOAD,2023-05-18 18:17:35,15.08841134,0.0001224,53.2151,149.5661,87.2593,272.8539,4.1607e-05,3.74e-06,0.0,0 STARLINK-5156,1 53973U 22125K   23138.76222080  .00000374  00000-0  41607-4 0  9999,2 53973  53.2151 149.5661 0001224  87.2593 272.8539 15.08841134 34447,6917.877,95.437,540.589,538.895,0.0
53973.0,STARLINK-5156,PAYLOAD,2023-05-19 07:00:41,15.08840267,0.0001209,53.2151,147.1871,88.9539,271.1591,4.1026e-05,3.65e-06,0.0,0 STARLINK-5156,1 53973U 22125K   23139.29214122  .00000365  00000-0  41026-4 0  9991,2 53973  53.2151 147.1871 0001209  88.9539 271.1591 15.08840267 34597,6917.88,95.438,540.581,538.908,0.0
53973.0,STARLINK-5156,PAYLOAD,2023-05-20 10:02:14,15.08843572,0.0001191,53.2152,142.1317,88.8669,271.246,4.201e-05,3.81e-06,0.0,0 STARLINK-5156,1 53973U 22125K   23140.41821840  .00000381  00000-0  42010-4 0  9990,2 53973  53.2152 142.1317 0001191  88.8669 271.2460 15.08843572 34768,6917.869,95.437,540.558,538.911,0.0
53973.0,STARLINK-5156,PAYLOAD,2023-05-21 06:42:14,15.08842452,0.0001209,53.2154,138.2656,89.3785,270.7346,6.4349e-05,7.36e-06,0.0,0 STARLINK-5156,1 53973U 22125K   23141.27933787  .00000736  00000-0  64349-4 0  9992,2 53973  53.2154 138.2656 0001209  89.3785 270.7346 15.08842452 34827,6917.873,95.437,540.574,538.902,0.0
53973.0,STARLINK-5156,PAYLOAD,2023-05-21 16:14:34,15.08836467,0.0001134,53.215,136.4814,85.7182,274.3939,1.3176e-05,-7.8e-07,0.0,0 STARLINK-5156,1 53973U 22125K   23141.67678327 -.00000078  00000-0  13176-4 0  9994,2 53973  53.2150 136.4814 0001134  85.7182 274.3939 15.08836467 34958,6917.891,95.438,540.541,538.972,0.0
53973.0,STARLINK-5156,PAYLOAD,2023-05-21 22:36:06,15.08834652,0.000123,53.2154,135.2932,88.516,271.5973,-2.1085e-05,-6.23e-06,0.0,0 STARLINK-5156,1 53973U 22125K   23141.94174662 -.00000623  00000-0 -21085-4 0  9992,2 53973  53.2154 135.2932 0001230  88.5160 271.5973 15.08834652 34922,6917.897,95.438,540.613,538.911,0.0
53973.0,STARLINK-5156,PAYLOAD,2023-05-22 06:33:02,15.08833481,0.0001224,53.2154,133.8058,88.6052,271.5081,-2.5729e-05,-6.97e-06,0.0,0 STARLINK-5156,1 53973U 22125K   23142.27294874 -.00000697  00000-0 -25729-4 0  9997,2 53973  53.2154 133.8058 0001224  88.6052 271.5081 15.08833481 34973,6917.9,95.438,540.612,538.919,0.0
53973.0,STARLINK-5156,PAYLOAD,2023-05-23 07:59:12,15.08837276,0.00012,53.2156,129.0483,90.6477,269.4652,2.2181e-05,6.5e-07,0.0,0 STARLINK-5156,1 53973U 22125K   23143.33278864  .00000065  00000-0  22181-4 0  9992,2 53973  53.2156 129.0483 0001200  90.6477 269.4652 15.08837276 35205,6917.889,95.438,540.584,538.924,0.0
53973.0,STARLINK-5156,PAYLOAD,2023-05-23 15:56:08,15.08836807,0.0001209,53.2157,127.5615,90.5942,269.5189,5.2626e-05,5.5e-06,0.0,0 STARLINK-5156,1 53973U 22125K   23143.66398881  .00000550  00000-0  52626-4 0  9996,2 53973  53.2157 127.5615 0001209  90.5942 269.5189 15.08836807 35183,6917.89,95.438,540.592,538.919,0.0
53973.0,STARLINK-5156,PAYLOAD,2023-05-24 07:49:59,15.08839785,0.0001209,53.2161,124.5876,92.6228,267.4903,0.00012621,1.721e-05,0.0,0 STARLINK-5156,1 53973U 22125K   23144.32638663  .00001721  00000-0  12621-3 0  9996,2 53973  53.2161 124.5876 0001209  92.6228 267.4903 15.08839785 35284,6917.881,95.438,540.582,538.91,0.0
53973.0,STARLINK-5156,PAYLOAD,2023-05-26 04:20:47,15.08843336,0.0001227,53.216,116.261,89.7562,270.3571,5.5346e-05,5.93e-06,0.0,0 STARLINK-5156,1 53973U 22125K   23146.18110872  .00000593  00000-0  55346-4 0  9997,2 53973  53.2160 116.2610 0001227  89.7562 270.3571 15.08843336 35635,6917.87,95.437,540.584,538.886,0.0
53973.0,STARLINK-5156,PAYLOAD,2023-05-27 04:11:35,15.08836372,0.0001241,53.2158,111.8021,80.0006,280.1126,9.9027e-06,-1.3e-06,0.0,0 STARLINK-5156,1 53973U 22125K   23147.17471598 -.00000130  00000-0  99027-5 0  9995,2 53973  53.2158 111.8021 0001241  80.0006 280.1126 15.08836372 35785,6917.891,95.438,540.615,538.898,0.0
53973.0,STARLINK-5156,PAYLOAD,2023-05-27 07:22:21,15.08838308,0.0001235,53.2154,111.2069,78.8387,281.2744,2.3663e-05,8.9e-07,0.0,0 STARLINK-5156,1 53973U 22125K   23147.30719438  .00000089  00000-0  23663-4 0  9992,2 53973  53.2154 111.2069 0001235  78.8387 281.2744 15.08838308 35731,6917.886,95.438,540.605,538.896,0.0
53973.0,STARLINK-5156,PAYLOAD,2023-05-28 02:26:58,15.0884236,0.0001312,53.2156,107.6391,78.0161,282.0978,7.3551e-05,8.83e-06,0.0,0 STARLINK-5156,1 53973U 22125K   23148.10206954  .00000883  00000-0  73551-4 0  9998,2 53973  53.2156 107.6391 0001312  78.0161 282.0978 15.08842360 35920,6917.873,95.437,540.646,538.831,0.0
53973.0,STARLINK-5156,PAYLOAD,2023-05-28 04:02:21,15.08845506,0.0001294,53.2162,107.3402,82.3675,277.7464,9.4758e-05,1.221e-05,0.0,0 STARLINK-5156,1 53973U 22125K   23148.16830676  .00001221  00000-0  94758-4 0  9997,2 53973  53.2162 107.3402 0001294  82.3675 277.7464 15.08845506 35863,6917.864,95.437,540.624,538.833,0.0
53973.0,STARLINK-5156,PAYLOAD,2023-05-28 07:13:07,15.08847214,0.0001299,53.2161,106.7451,82.2289,277.885,0.00010667,1.41e-05,0.0,0 STARLINK-5156,1 53973U 22125K   23148.30078489  .00001410  00000-0  10667-3 0  9995,2 53973  53.2161 106.7451 0001299  82.2289 277.8850 15.08847214 35884,6917.858,95.437,540.622,538.825,0.0
53973.0,STARLINK-5156,PAYLOAD,2023-05-29 03:53:09,15.08841316,0.0001235,53.2165,102.879,81.1987,278.9145,6.5506e-05,7.55e-06,0.0,0 STARLINK-5156,1 53973U 22125K   23149.16190975  .00000755  00000-0  65506-4 0  9999,2 53973  53.2165 102.8790 0001235  81.1987 278.9145 15.08841316 36083,6917.876,95.437,540.596,538.887,0.0
53973.0,STARLINK-5156,PAYLOAD,2023-05-29 21:22:24,15.08836006,0.0001183,53.216,99.6094,83.0949,277.0178,-0.00010226,-1.915e-05,0.0,0 STARLINK-5156,1 53973U 22125K   23149.89056023 -.00001915  00000-0 -10226-3 0  9993,2 53973  53.2160  99.6094 0001183  83.0949 277.0178 15.08836006 36120,6917.893,95.438,540.576,538.939,0.0
53973.0,STARLINK-5156,PAYLOAD,2023-05-30 03:43:56,15.0883675,0.000119,53.2162,98.4203,85.4078,274.705,-7.5379e-05,-1.487e-05,0.0,0 STARLINK-5156,1 53973U 22125K   23150.15551910 -.00001487  00000-0 -75379-4 0  9994,2 53973  53.2162  98.4203 0001190  85.4078 274.7050 15.08836750 36239,6917.89,95.438,540.579,538.932,0.0
53973.0,STARLINK-5156,PAYLOAD,2023-05-31 03:34:43,15.08840612,0.0001186,53.2165,93.9598,89.9992,270.1136,4.3307e-05,4.01e-06,0.0,0 STARLINK-5156,1 53973U 22125K   23151.14911532  .00000401  00000-0  43307-4 0  9993,2 53973  53.2165  93.9598 0001186  89.9992 270.1136 15.08840612 36381,6917.879,95.438,540.564,538.923,0.0
53973.0,STARLINK-5156,PAYLOAD,2023-06-01 05:00:53,15.08843379,0.000118,53.2167,89.2012,93.558,266.5548,0.0001297,1.777e-05,0.0,0 STARLINK-5156,1 53973U 22125K   23152.20895212  .00001777  00000-0  12970-3 0  9995,2 53973  53.2167  89.2012 0001180  93.5580 266.5548 15.08843379 36479,6917.87,95.437,540.551,538.919,0.0
53973.0,STARLINK-5156,PAYLOAD,2023-06-02 01:40:55,15.08838732,0.0001242,53.217,85.3339,99.9576,260.1556,-6.101e-06,-3.85e-06,0.0,0 STARLINK-5156,1 53973U 22125K   23153.07008132 -.00000385  00000-0 -61010-5 0  9995,2 53973  53.2170  85.3339 0001242  99.9576 260.1556 15.08838732 36674,6917.884,95.438,540.608,538.89,0.0
53973.0,STARLINK-5156,PAYLOAD,2023-06-02 03:16:18,15.08839685,0.0001243,53.2171,85.0366,97.3731,262.7403,1.9976e-06,-2.56e-06,0.0,0 STARLINK-5156,1 53973U 22125K   23153.13632062 -.00000256  00000-0  19976-5 0  9997,2 53973  53.2171  85.0366 0001243  97.3731 262.7403 15.08839685 36619,6917.881,95.438,540.606,538.886,0.0
53973.0,STARLINK-5156,PAYLOAD,2023-06-02 19:10:09,15.08843023,0.0001261,53.2171,82.0631,91.6319,268.4818,-1.6833e-05,-5.56e-06,0.0,0 STARLINK-5156,1 53973U 22125K   23153.79872052 -.00000556  00000-0 -16833-4 0  9996,2 53973  53.2171  82.0631 0001261  91.6319 268.4818 15.08843023 36715,6917.871,95.437,540.608,538.864,0.0
53973.0,STARLINK-5156,PAYLOAD,2023-06-03 01:31:41,15.08847801,0.000127,53.2166,80.8748,92.0759,268.0378,3.4811e-05,2.66e-06,0.0,0 STARLINK-5156,1 53973U 22125K   23154.06367495  .00000266  00000-0  34811-4 0  9999,2 53973  53.2166  80.8748 0001270  92.0759 268.0378 15.08847801 36824,6917.857,95.437,540.6,538.843,0.0
53973.0,STARLINK-5156,PAYLOAD,2023-06-03 19:00:56,15.08843202,0.0001187,53.2164,77.6054,85.4831,274.6296,-8.3508e-06,-4.21e-06,0.0,0 STARLINK-5156,1 53973U 22125K   23154.79232051 -.00000421  00000-0 -83508-5 0  9991,2 53973  53.2164  77.6054 0001187  85.4831 274.6296 15.08843202 36867,6917.871,95.437,540.557,538.914,0.0
53973.0,STARLINK-5156,PAYLOAD,2023-06-04 01:22:28,15.08839326,0.0001154,53.2171,76.4148,90.1103,270.0022,7.5371e-05,9.12e-06,0.0,0 STARLINK-5156,1 53973U 22125K   23155.05727930  .00000912  00000-0  75371-4 0  9997,2 53973  53.2171  76.4148 0001154  90.1103 270.0022 15.08839326 36976,6917.882,95.438,540.546,538.949,0.0
53973.0,STARLINK-5156,PAYLOAD,2023-06-04 04:33:15,15.08841335,0.0001162,53.2171,75.8198,90.0725,270.04,8.2297e-05,1.022e-05,0.0,0 STARLINK-5156,1 53973U 22125K   23155.18975787  .00001022  00000-0  82297-4 0  9994,2 53973  53.2171  75.8198 0001162  90.0725 270.0400 15.08841335 36920,6917.876,95.437,540.545,538.937,0.0
53973.0,STARLINK-5156,PAYLOAD,2023-06-04 22:02:29,15.08839676,0.0001177,53.218,72.5489,95.7631,264.3495,-1.4973e-05,-5.26e-06,0.0,0 STARLINK-5156,1 53973U 22125K   23155.91840245 -.00000526  00000-0 -14973-4 0  9991,2 53973  53.2180  72.5489 0001177  95.7631 264.3495 15.08839676 37039,6917.881,95.438,540.561,538.932,0.0
53973.0,STARLINK-5156,PAYLOAD,2023-06-05 02:48:39,15.08843667,0.0001137,53.2174,71.6568,87.5235,272.5888,3.9448e-05,3.4e-06,0.0,0 STARLINK-5156,1 53973U 22125K   23156.11711810  .00000340  00000-0  39448-4 0  9995,2 53973  53.2174  71.6568 0001137  87.5235 272.5888 15.08843667 37138,6917.869,95.437,540.521,538.948,0.0
